#dP2021  5  9  0  0  0.00000000      96 __u+U ITR00 FIT  IAC
## 2157      0.00000000   900.00000000 59343 0.0000000000000
+  116   C06C07C08C09C10C11C12C13C14C16C19C20C21C22C23C24C25
+        C26C27C28C29C30C32C33C34C35C36C37C38C39C40C41C42C43
+        C44C45C46E01E02E03E04E05E07E08E09E11E12E13E14E15E18
+        E19E21E24E25E26E27E30E31E33E36G01G02G03G04G05G06G07
+        G08G09G10G12G13G14G15G16G17G18G19G20G21G22G23G24G25
+        G26G27G28G29G30G31G32J01J02J03R01R02R03R04R05R07R08
+        R09R11R12R13R14R15R16R17R18R19R20R21R22R24  0  0  0
++         8  7  7  7  6  6  5  7  6  8  6  7  7  7  8  5  6
++         8  7  6  8  8  6  5  7  8  7  6  7  8 10  6  6  7
++         7  9  7  7  6  5  7  6  5  5  5  7  4  6  5  7  5
++         7  7  5  7  6  7  6  6  5  6  5  5  5  5  4  5  5
++         6  6  6  5  5  7  5  5  4  6  7  4  4  5  6  4  5
++         5  4  7  6  5  6  5  8  7  8  6  6  7  5  8  5  6
++         8  7  6  6  6  5  7  6  5  7  8  7  8  8  0  0  0
%c M  cc GPS ccc cccc cccc cccc cccc ccccc ccccc ccccc ccccc
%c cc cc ccc ccc cccc cccc cccc cccc ccccc ccccc ccccc ccccc
%f  0.0000000  0.000000000  0.00000000000  0.000000000000000
%f  0.0000000  0.000000000  0.00000000000  0.000000000000000
%i    0    0    0    0      0      0      0      0         0
%i    0    0    0    0      0      0      0      0         0
/* INFORMATION & ANALYSIS CENTER (IAC)      ULTRA-RAPID DATA
/* S/V CLOCKS ARE ALIGNED TO GNSS TIME                      
/* G:C1WC2W R:C1PC2P E:C1XC5X C:C2IC6I J:C1CC2S             
/* PCV:IGS14_2148 OL/AL:FES2004  NONE     YN ORB:CoN CLK:CoN
*  2021 05 09 14  0  0.00000000
PC06 -16047.214163  38005.005780  10366.201861    365.312301
PC07 -11871.288668  23929.104379 -32324.679601   -204.312848
PC08 -24696.539502  23723.871026  24453.639924   -890.261348
PC09  -7314.891387  41429.839434  -4994.527230    536.504240
PC10   4133.367802  31068.463235 -27807.703764    -45.112910
PC11  -1701.994342  25763.815836  10596.787932    330.957052
PC12 -12914.324929  23701.594750  -7025.609482    891.373133
PC13 -10910.848969  25599.825812  31696.410377    253.931855
PC14   8516.722944  23046.130361  13205.715774    683.961291
PC16 -13285.699041  39536.022906   7052.360179   -827.859645
PC19 -16178.387253 -22313.832473  -4413.068699    828.445859
PC20  -1282.099297 -20660.241020 -18708.581567   -924.706637
PC21 -15201.161447   6467.907592  22518.041420   -942.886868
PC22 -22135.449102 -11145.328557  12869.762447   -958.126240
PC23  25847.980645   2188.862806 -10282.500210   -903.308825
PC24 -10035.155351  16666.359501 -20006.735640   -843.743634
PC25  12331.951590  12860.162422 -21486.787351   -919.760971
PC26 -24389.484829  11204.219026  -7586.674317    909.521535
PC27  16617.351964 -16702.262150  14917.668009    528.811474
PC28  15627.419014   3167.702100  22901.297824    -76.520710
PC29  -6288.037329 -20897.909703 -17399.002642    389.910353
PC30   7200.147126 -26918.211200  -1258.546823    466.263589
PC32  15125.949396  -6601.082579 -22479.139115   -935.813050
PC33  16194.376448  22256.224756   4542.199363   -939.460553
PC34  -6813.830208  27006.189893   1941.017288   -677.421447
PC35 -15705.075091  -2993.505786 -22881.870166   -288.976234
PC36 -11632.895223 -13313.144036  21615.519651   -727.361313
PC37  25103.193256 -10165.180453   6776.585690   -896.882703
PC38 -19633.675267  26258.183883  26478.619822    147.587870
PC39  -8856.175152  41053.115645   4556.537295     30.950766
PC40    103.840356  27491.561525 -31898.678337    159.235498
PC41  22165.703471  11348.181489 -12542.595408   -944.847458
PC42    489.369611  20322.911571  19158.202697   -916.560949
PC43   5896.194686  21345.597359  16987.074262   -722.394663
PC44 -16200.342058  17075.048962 -15030.369361    179.107094
PC45 -25874.839843  -2017.361670  10237.138797    435.522015
PC46   9015.445467 -16665.783104  20502.743867    278.923257
PE01  27060.132283   -881.527259  11966.104242  -1104.135386
PE02 -26999.199726    979.863597 -12081.961756    217.866370
PE03 -16545.172899   4380.549930  24155.571802   -429.032586
PE04   6507.210313 -23181.516576 -17207.036035   -767.267448
PE05 -17005.975182 -17260.901768  17011.721340   -282.352666
PE07   7536.429487  28618.737435     -8.459170   -535.582095
PE08  -6096.447923  23390.865932  17082.956692   6004.873825
PE09  -7810.792086 -28559.818447    201.203525   5673.648554
PE11    677.844097 -20481.684845 -21360.449410   6001.305004
PE12  17670.879536 -23042.872703  -5675.682683   5219.283343
PE13  -1096.651617  20666.107206  21169.824383    416.156695
PE14 -20406.014912   1048.399119 -24765.027380  -1425.050272
PE15 -17597.709928  23112.740600   5716.494830    815.202252
PE18  14004.942409 -11008.721536  16774.000754  -1559.676406
PE19  17010.725540  -1772.839714 -24147.667717    272.571527
PE21  26620.248787  11469.531337  -6007.287313   -663.927765
PE24  -9771.602956 -17823.014601  21496.015013   -890.803576
PE25 -26529.897855 -11574.241223   6192.831675   -533.311084
PE26  16668.547762   5509.172522  23832.933525   1830.698882
PE27  10735.232905  17709.470798 -21151.938972    -28.673436
PE30 -12395.133141  13062.127841 -23501.126301   2959.437562
PE31  11360.733418 -13501.494084  23769.851317   -480.985802
PE33  23709.667546 -11938.492629  13083.943016   -468.410680
PE36 -16040.742948  -6039.788491 -24133.790133   -204.741358
PG01   8173.098389 -18773.331282 -16976.893802    694.021008
PG02 -22136.012022  14129.907203  -3481.735156   -602.765991
PG03  -1944.537441 -16769.535478 -20613.728934   -159.248303
PG04   1439.956361 -26299.832238  -3167.077064   -195.559280
PG05 -14536.356827   9083.335631  20185.502532    -41.434450
PG06 -22173.909957   3351.523200 -14221.998138     14.128553
PG07  -6614.039260 -14190.939618  21773.660615    145.965720
PG08   6594.325999 -22503.139407  12161.314447    -20.579347
PG09  -7159.888073 -24489.335717   7281.417979   -344.398069
PG10  23976.089006  11764.102920    -49.342223   -118.482272
PG12  -1583.160034  15977.305560 -21438.555745    -38.750958
PG13 -12884.431276  15441.775240  17148.232821    129.893645
PG14 -23211.637306 -12943.395685    153.326577     88.026863
PG15  -4302.405873  23331.665690  11210.704168   -150.588401
PG16  18443.017643  -3603.684113  18705.584532   -322.452063
PG17 -12714.735531 -12912.104801 -18991.020126    439.629467
PG18   9629.414754  11669.317235  21823.069093    350.761771
PG19 -14698.670102  -3449.322704 -22145.527945     -2.245592
PG20  -1108.436725  15974.590613  21170.758964    522.361027
PG21  14650.989195 -19523.825133  -9140.109405    116.910756
PG22   8279.814573 -13529.996847 -21093.433146   -618.546723
PG23  18164.705776  16377.277739  10396.141334    108.070001
PG24 -11613.585252  20393.775244 -12296.035625     66.848224
PG25  12046.947500  18136.459372 -15658.768772    133.971170
PG26  23948.037420   1342.601117  11633.329110     83.050358
PG27  12393.660512 -12693.531215  19467.003993   -127.081204
PG28 -23547.994462 -10978.093886  -4474.751410    574.077975
PG29   4774.108478  24975.115330   7542.525372   -344.105369
PG30 -18354.418325  -4728.078911  18755.618785   -423.791982
PG31  23601.464929  -5159.816163 -11632.402165   -116.300647
PG32  14633.257868  10001.425483 -19721.342798     21.490577
PJ01 -25951.163773  22056.167110  29882.453677   -376.380661
PJ02 -29672.987705  16484.153822 -20509.919281      7.632190
PJ03 -23555.906152  31886.314412  -9805.164620     -5.064638
PR01  -7865.521955   8168.881650  22855.215015     79.166205
PR02   6593.372043  21707.661563  11765.799845    477.934052
PR03  15150.275857  19799.134342  -5470.644114     35.623818
PR04  14894.558063   6868.047924 -19504.193496     86.010099
PR05   6430.280489  -9863.198287 -22608.639114     71.406496
PR07 -15319.066707 -19393.084798   6274.002343    -42.495203
PR08 -14980.873418  -6663.288844  19594.635978    -58.932242
PR09     90.581140 -11277.258965  22893.678898     -8.004358
PR11 -25478.977217    466.819877   1284.445826     -3.124512
PR12 -18356.464285   8047.757645 -15741.872336    227.493268
PR13   -899.865349  11023.066258 -23002.912883    -54.511475
PR14  17825.031598   7470.624474 -16628.646758     64.059919
PR15  25493.922339   -336.475410   -752.574764    103.920141
PR16  17458.071464  -8895.772346  16383.324136    -14.893055
PR17   4967.846271  11765.661568  22078.482290    422.590404
PR18  13449.037531  -4611.734943  21172.666670     75.902132
PR19  15501.646815 -17768.798535   9721.713927   -143.029715
PR20   7782.785319 -22014.368252 -10209.757953    -48.800840
PR21  -5601.963314 -10729.278993 -22460.928858   -207.681285
PR22 -13842.420971   5743.952946 -20690.056470   -111.868708
PR24  -6821.159413  22090.666313  10781.333321     41.957632
EOF
